*******************************************************************************
 Revised: June 21, 2016                 Mars                            499 / 4
 
 PHYSICAL DATA (updated 2019-Oct-29):
  Vol. mean radius (km) = 3389.92+-0.04   Density (g/cm^3)      =  3.933(5+-4)
  Mass x10^23 (kg)      =    6.4171       Flattening, f         =  1/169.779
  Volume (x10^10 km^3)  =   16.318        Equatorial radius (km)=  3396.19
  Sidereal rot. period  =   24.622962 hr  Sid. rot. rate, rad/s =  0.0000708822 
  Mean solar day (sol)  =   88775.24415 s Polar gravity m/s^2   =  3.758
  Core radius (km)      = ~1700           Equ. gravity  m/s^2   =  3.71
  Geometric Albedo      =    0.150                                              

  GM (km^3/s^2)         = 42828.375214    Mass ratio (Sun/Mars) = 3098703.59
  GM 1-sigma (km^3/s^2) = +- 0.00028      Mass of atmosphere, kg= ~ 2.5 x 10^16
  Mean temperature (K)  =  210            Atmos. pressure (bar) =    0.0056 
  Obliquity to orbit    =   25.19 deg     Max. angular diam.    =  17.9"
  Mean sidereal orb per =    1.88081578 y Visual mag. V(1,0)    =  -1.52
  Mean sidereal orb per =  686.98 d       Orbital speed,  km/s  =  24.13
  Hill's sphere rad. Rp =  319.8          Escape speed, km/s    =   5.027
                                 Perihelion  Aphelion    Mean
  Solar Constant (W/m^2)         717         493         589
  Maximum Planetary IR (W/m^2)   470         315         390
  Minimum Planetary IR (W/m^2)    30          30          30
*******************************************************************************


*******************************************************************************
Ephemeris / WWW_USER Thu May 18 04:23:39 2023 Pasadena, USA      / Horizons    
*******************************************************************************
Target body name: Mars (499)                      {source: mar097}
Center body name: Earth (399)                     {source: DE441}
Center-site name: GEOCENTRIC
*******************************************************************************
Start time      : A.D. 2023-Jan-01 00:00:00.0000 UT      
Stop  time      : A.D. 2023-May-18 00:00:00.0000 UT      
Step-size       : 1440 minutes
*******************************************************************************
Target pole/equ : IAU_MARS                        {West-longitude positive}
Target radii    : 3396.19, 3396.19, 3376.2 km     {Equator_a, b, pole_c}       
Center geodetic : 0.0, 0.0, -6378.137             {E-lon(deg),Lat(deg),Alt(km)}
Center cylindric: 0.0, 0.0, 0.0                   {E-lon(deg),Dxy(km),Dz(km)}
Center pole/equ : ITRF93                          {East-longitude positive}
Center radii    : 6378.137, 6378.137, 6356.752 km {Equator_a, b, pole_c}       
Target primary  : Sun
Vis. interferer : MOON (R_eq= 1737.400) km        {source: DE441}
Rel. light bend : Sun                             {source: DE441}
Rel. lght bnd GM: 1.3271E+11 km^3/s^2                                          
Atmos refraction: NO (AIRLESS)
RA format       : HMS
Time format     : CAL 
Calendar mode   : Mixed Julian/Gregorian
EOP file        : eop.230516.p230809                                           
EOP coverage    : DATA-BASED 1962-JAN-20 TO 2023-MAY-16. PREDICTS-> 2023-AUG-08
Units conversion: 1 au= 149597870.700 km, c= 299792.458 km/s, 1 day= 86400.0 s 
Table cut-offs 1: Elevation (-90.0deg=NO ),Airmass (>38.000=NO), Daylight (NO )
Table cut-offs 2: Solar elongation (  0.0,180.0=NO ),Local Hour Angle( 0.0=NO )
Table cut-offs 3: RA/DEC angular rate (     0.0=NO )                           
******************************************************************************************************************************************************************************
 Date__(UT)__HR:MN     R.A._____(ICRF)_____DEC    APmag   S-brt             delta      deldot     S-O-T /r     S-T-O  Sky_motion  Sky_mot_PA  RelVel-ANG  Lun_Sky_Brt  sky_SNR
******************************************************************************************************************************************************************************
$$SOE
 2023-Apr-10 00:00     06 32 57.60 +25 11 50.5    1.029   4.574  1.54161766741214  16.7313620   77.9167 /T   36.3244   1.2923800   94.552122   34.788083         n.a.     n.a.
 2023-Apr-11 00:00     06 35 14.50 +25 09 23.6    1.058   4.589  1.55127013279377  16.6927713   77.4530 /T   36.2498   1.2968979   94.769271   34.465475         n.a.     n.a.
 2023-Apr-12 00:00     06 37 31.78 +25 06 49.0    1.077   4.596  1.56090006345321  16.6533111   76.9916 /T   36.1732   1.3013549   94.986781   34.145711         n.a.     n.a.
 2023-Apr-13 00:00     06 39 49.44 +25 04 06.9    1.102   4.608  1.57050692042694  16.6128508   76.5325 /T   36.0945   1.3057556   95.204622   33.828469         n.a.     n.a.
 2023-Apr-14 00:00     06 42 07.46 +25 01 17.0    1.125   4.618  1.58009008448080  16.5712445   76.0755 /T   36.0138   1.3101025   95.422773   33.513448         n.a.     n.a.
 2023-Apr-15 00:00     06 44 25.83 +24 58 19.4    1.142   4.622  1.58964885004228  16.5283412   75.6207 /T   35.9312   1.3143959   95.641218   33.200388         n.a.     n.a.
 2023-Apr-16 00:00     06 46 44.55 +24 55 14.0    1.162   4.630  1.59918242579932  16.4839974   75.1681 /T   35.8466   1.3186336   95.859946   32.889094         n.a.     n.a.
 2023-Apr-17 00:00     06 49 03.59 +24 52 00.8    1.189   4.644  1.60868994336891  16.4380922   74.7177 /T   35.7601   1.3228114   96.078950   32.579447         n.a.     n.a.
 2023-Apr-18 00:00     06 51 22.96 +24 48 39.8    1.209   4.653  1.61817047483353  16.3905427   74.2694 /T   35.6717   1.3269233   96.298220   32.271425         n.a.     n.a.
 2023-Apr-19 00:00     06 53 42.63 +24 45 10.7    1.214   4.645  1.62762305834206  16.3413159   73.8232 /T   35.5815   1.3309621   96.517743   31.965094         n.a.     n.a.
 2023-Apr-20 00:00     06 56 02.59 +24 41 33.8    1.224   4.643  1.63704672869946  16.2904332   73.3791 /T   35.4895   1.3349213   96.737494   31.660604         n.a.     n.a.
 2023-Apr-21 00:00     06 58 22.84 +24 37 48.8    1.227   4.634  1.64644054799660  16.2379660   72.9371 /T   35.3956   1.3387948   96.957438   31.358154         n.a.     n.a.
 2023-Apr-22 00:00     07 00 43.35 +24 33 55.9    1.235   4.631  1.65580363104521  16.1840230   72.4972 /T   35.3001   1.3425789   97.177526   31.057963         n.a.     n.a.
 2023-Apr-23 00:00     07 03 04.11 +24 29 54.9    1.245   4.629  1.66513516203867  16.1287329   72.0594 /T   35.2029   1.3462715   97.397701   30.760237         n.a.     n.a.
 2023-Apr-24 00:00     07 05 25.11 +24 25 45.8    1.278   4.650  1.67443440162489  16.0722294   71.6235 /T   35.1040   1.3498726   97.617897   30.465148         n.a.     n.a.
 2023-Apr-25 00:00     07 07 46.33 +24 21 28.6    1.290   4.651  1.68370068608765  16.0146393   71.1897 /T   35.0035   1.3533838   97.838045   30.172829         n.a.     n.a.
 2023-Apr-26 00:00     07 10 07.75 +24 17 03.4    1.289   4.638  1.69293342165398  15.9560775   70.7578 /T   34.9014   1.3568076   98.058078   29.883372         n.a.     n.a.
 2023-Apr-27 00:00     07 12 29.37 +24 12 30.0    1.299   4.637  1.70213207699573  15.8966455   70.3279 /T   34.7978   1.3601470   98.277927   29.596838         n.a.     n.a.
 2023-Apr-28 00:00     07 14 51.18 +24 07 48.5    1.325   4.652  1.71129617624892  15.8364344   69.8999 /T   34.6927   1.3634055   98.497528   29.313265         n.a.     n.a.
 2023-Apr-29 00:00     07 17 13.14 +24 02 58.8    1.336   4.653  1.72042529389010  15.7755281   69.4737 /T   34.5861   1.3665864   98.716817   29.032679         n.a.     n.a.
 2023-Apr-30 00:00     07 19 35.26 +23 58 01.0    1.330   4.636  1.72951905191448  15.7140078   69.0494 /T   34.4782   1.3696934   98.935731   28.755101         n.a.     n.a.
 2023-May-01 00:00     07 21 57.53 +23 52 55.1    1.333   4.628  1.73857711904799  15.6519547   68.6268 /T   34.3688   1.3727302   99.154212   28.480546         n.a.     n.a.
 2023-May-02 00:00     07 24 19.92 +23 47 41.1    1.336   4.621  1.74759921114347  15.5894506   68.2060 /T   34.2581   1.3757011   99.372200   28.209028         n.a.     n.a.
 2023-May-03 00:00     07 26 42.44 +23 42 18.9    1.337   4.611  1.75658509140004  15.5265770   67.7869 /T   34.1461   1.3786107   99.589637   27.940545         n.a.     n.a.
 2023-May-04 00:00     07 29 05.06 +23 36 48.6    1.345   4.608  1.76553456862021  15.4634093   67.3695 /T   34.0327   1.3814648   99.806469   27.675076         n.a.     n.a.
 2023-May-05 00:00     07 31 27.78 +23 31 10.2    1.336   4.589  1.77444749152898  15.4000086   66.9537 /T   33.9181   1.3842699   100.02264   27.412564         n.a.     n.a.
 2023-May-06 00:00     07 33 50.59 +23 25 23.7    1.329   4.572  1.78332373747143  15.3364111   66.5395 /T   33.8023   1.3870333   100.23811   27.152902         n.a.     n.a.
 2023-May-07 00:00     07 36 13.48 +23 19 29.0    1.352   4.585  1.79216319480103  15.2726171   66.1269 /T   33.6852   1.3897630   100.45282   26.895925         n.a.     n.a.
 2023-May-08 00:00     07 38 36.45 +23 13 26.3    1.345   4.568  1.80096573992553  15.2085841   65.7158 /T   33.5669   1.3924666   100.66676   26.641411         n.a.     n.a.
 2023-May-09 00:00     07 40 59.49 +23 07 15.5    1.354   4.567  1.80973121180849  15.1442255   65.3062 /T   33.4475   1.3951510   100.87987   26.389088         n.a.     n.a.
 2023-May-10 00:00     07 43 22.58 +23 00 56.7    1.357   4.561  1.81845938793163  15.0794166   64.8980 /T   33.3268   1.3978216   101.09215   26.138660         n.a.     n.a.
 2023-May-11 00:00     07 45 45.74 +22 54 29.7    1.366   4.559  1.82714996566420  15.0140069   64.4913 /T   33.2050   1.4004817   101.30358   25.889829         n.a.     n.a.
 2023-May-12 00:00     07 48 08.94 +22 47 54.8    1.373   4.557  1.83580255168435  14.9478355   64.0860 /T   33.0820   1.4031324   101.51415   25.642323         n.a.     n.a.
